OBJECT_NAME,OBJECT_ID,EPOCH,MEAN_MOTION,ECCENTRICITY,INCLINATION,RA_OF_ASC_NODE,ARG_OF_PERICENTER,MEAN_ANOMALY,EPHEMERIS_TYPE,CLASSIFICATION_TYPE,NORAD_CAT_ID,ELEMENT_SET_NO,REV_AT_EPOCH,BSTAR,MEAN_MOTION_DOT,MEAN_MOTION_DDOT
HORIZONS-3E,2018-074B,2026-06-09T03:52:26.934240,1.00270197,.0000957,0.0093,158.1609,124.5481,201.9406,0,U,43633,999,2826,0,-.14E-6,0
AEHF-4 (USA 288),2018-079A,2026-06-11T08:17:38.631264,1.00274739,.0060479,1.4303,3.4271,356.5742,316.5401,0,U,43651,999,2823,0,-.259E-5,0
BEIDOU-3 G1,2018-085A,2026-06-11T16:23:07.973952,1.00271018,.0008273,2.8530,97.5408,348.4004,219.8426,0,U,43683,999,2800,0,-.93E-6,0
GSAT-29,2018-089A,2026-06-11T16:55:41.642976,1.00272298,.0003394,0.0533,106.9111,328.6176,133.4764,0,U,43698,999,2773,0,.102E-5,0
ES'HAIL 2,2018-090A,2026-06-11T13:22:05.899872,1.00274346,.0001873,0.0171,319.2547,163.3216,3.6824,0,U,43700,999,2762,0,.161E-5,0
GEO-KOMPSAT-2A,2018-100A,2026-06-11T13:51:13.313088,1.00270826,.0002052,0.0541,130.2462,320.4023,145.3295,0,U,43823,999,2757,0,-.327E-5,0
GSAT-11,2018-100B,2026-06-11T17:01:11.117280,1.00271088,.0007721,0.0428,255.6387,191.1598,142.5541,0,U,43824,999,2742,0,-.6E-6,0
GSAT-7A,2018-105A,2026-06-11T16:57:56.426976,1.00269289,.0001937,0.0161,340.1720,79.8835,157.2448,0,U,43864,999,2739,0,0,0
COSMOS 2533,2018-107A,2026-06-11T16:59:56.236992,1.00270683,.000017,0.0449,108.9832,28.5458,87.4965,0,U,43867,999,2739,0,-.22E-6,0
TJS-3,2018-110A,2026-06-11T17:00:07.404192,1.00271895,.0002055,2.5299,80.5556,80.8985,141.8861,0,U,43874,999,2736,0,-.2E-5,0
ZHONGXING-2D,2019-001A,2026-06-11T17:45:32.359968,1.00274591,.0001438,0.0425,249.9123,96.1776,310.3713,0,U,43920,999,5402,0,-.32E-5,0
HELLAS-SAT 4 & SGS-1,2019-007A,2026-06-09T11:48:42.536736,1.00272091,.00050878,0.0659,133.0572,8.6055,332.4040,0,U,44034,999,2729,0,.17E-5,0
GSAT-31,2019-007B,2026-06-11T15:10:58.176192,1.00271975,.0001882,0.0793,261.2629,103.0934,171.1726,0,U,44035,999,2691,0,.142E-5,0
NUSANTARA SATU,2019-009A,2026-06-09T05:28:35.870880,1.00269842,.00042913,0.0401,145.4911,326.7553,13.5159,0,U,44048,999,2669,0,-.218E-5,0
ZHONGXING-6C,2019-012A,2026-06-11T17:41:24.006624,1.00274346,.0013822,0.1038,78.6292,331.9116,245.2868,0,U,44067,999,2668,0,-.319E-5,0
WGS 10 (USA 291),2019-014A,2026-06-11T04:58:35.751072,1.00267293,.0000764,0.0227,359.5065,314.2285,80.7754,0,U,44071,999,2655,0,0,0
TIANLIAN 2-01,2019-017A,2026-06-11T16:21:41.224896,1.00270813,.0000693,0.5250,83.1167,18.6606,120.6897,0,U,44076,999,2659,0,-.9E-6,0
ARABSAT-6A,2019-021A,2026-06-09T04:55:37.438752,1.00284123,.000128,0.0494,0.6850,101.2480,260.1178,0,U,44186,999,2607,0,.171E-5,0
BEIDOU-3 IGSO-1,2019-023A,2026-06-06T22:54:10.040832,1.00294886,.00254341,58.6799,37.7569,225.6649,92.8731,0,U,44204,999,710,0,-.215E-5,0
BEIDOU-2 G8,2019-027A,2026-06-11T17:21:16.690176,1.00272924,.0010323,1.6429,74.5053,283.0731,307.3465,0,U,44231,999,2602,0,-.231E-5,0
YAMAL 601,2019-031A,2026-06-11T15:11:20.641056,1.00272145,.0002128,0.0234,359.6015,82.8896,94.3171,0,U,44307,999,2587,0,0,0
AT&T T-16,2019-034A,2026-06-09T16:16:49.046880,1.00268740,.00006409,0.0247,68.1337,190.5571,142.7032,0,U,44333,999,2555,0,-.98E-6,0
EUTELSAT 7C,2019-034B,2026-06-10T03:51:38.494944,1.00271195,.00030612,0.0735,173.1347,250.6305,259.6729,0,U,44334,999,676,0,.66E-6,0
BEIDOU-3 IGSO-2,2019-035A,2026-06-10T23:54:00.220032,1.00268507,.0039933,55.2455,158.9168,216.3389,2.4216,0,U,44337,999,2560,0,-.37E-6,0
COSMOS 2539,2019-048A,2026-06-11T13:17:58.796736,1.00273877,.0000242,0.0400,103.1991,141.6449,226.5634,0,U,44457,999,2517,0,.98E-6,0
EDRS-C,2019-049A,2026-06-09T15:43:37.228800,1.00270940,.00010077,0.0409,141.6066,308.4571,186.3828,0,U,44475,999,2513,0,-.245E-5,0
INTELSAT 39 (IS-39),2019-049B,2026-06-10T22:34:08.694624,1.00269836,.00010821,0.0255,336.9481,329.3092,353.5144,0,U,44476,999,2506,0,0,0
AMOS-17,2019-050A,2026-06-09T23:40:49.114848,1.00270721,.00015691,0.0150,336.4106,127.3490,166.7906,0,U,44479,999,2511,0,.126E-5,0
AEHF-5 (USA 292),2019-051A,2026-06-11T17:30:27.643104,1.00275692,.0066387,1.4597,335.7501,0.4451,279.4873,0,U,44481,999,2520,0,-.242E-5,0
EUTELSAT 5 WEST B,2019-067A,2026-06-11T16:38:40.148736,1.00271886,.0002984,0.0627,353.5175,86.7801,64.4209,0,U,44624,999,2438,0,-.26E-6,0
TJS-4,2019-070A,2026-06-11T18:22:43.658112,1.00268002,.0004514,0.0224,344.6260,54.8912,219.7654,0,U,44637,999,2448,0,0,0
BEIDOU-3 IGSO-3,2019-073A,2026-05-16T19:27:04.075776,1.00246251,.0042953,54.8566,281.2355,189.4588,170.3676,0,U,44709,999,2414,0,-.217E-5,0
