HORIZONS-3E             
1 43633U 18074B   26160.16142285 -.00000014  00000+0  00000+0 0  9997
2 43633   0.0093 158.1609 0000957 124.5481 201.9406  1.00270197 28266
AEHF-4 (USA 288)        
1 43651U 18079A   26162.34558601 -.00000259  00000+0  00000+0 0  9998
2 43651   1.4303   3.4271 0060479 356.5742 316.5401  1.00274739 28235
BEIDOU-3 G1             
1 43683U 18085A   26162.68273118 -.00000093  00000+0  00000+0 0  9990
2 43683   2.8530  97.5408 0008273 348.4004 219.8426  1.00271018 28002
GSAT-29                 
1 43698U 18089A   26162.70534309  .00000102  00000+0  00000+0 0  9995
2 43698   0.0533 106.9111 0003394 328.6176 133.4764  1.00272298 27732
ES'HAIL 2               
1 43700U 18090A   26162.55701273  .00000161  00000+0  00000+0 0  9995
2 43700   0.0171 319.2547 0001873 163.3216   3.6824  1.00274346 27624
GEO-KOMPSAT-2A          
1 43823U 18100A   26162.57723742 -.00000327  00000+0  00000+0 0  9995
2 43823   0.0541 130.2462 0002052 320.4023 145.3295  1.00270826 27579
GSAT-11                 
1 43824U 18100B   26162.70915645 -.00000060  00000+0  00000+0 0  9990
2 43824   0.0428 255.6387 0007721 191.1598 142.5541  1.00271088 27428
GSAT-7A                 
1 43864U 18105A   26162.70690309  .00000000  00000+0  00000+0 0  9999
2 43864   0.0161 340.1720 0001937  79.8835 157.2448  1.00269289 27391
COSMOS 2533             
1 43867U 18107A   26162.70828978 -.00000022  00000+0  00000+0 0  9994
2 43867   0.0449 108.9832 0000170  28.5458  87.4965  1.00270683 27395
TJS-3                   
1 43874U 18110A   26162.70841903 -.00000200  00000+0  00000+0 0  9997
2 43874   2.5299  80.5556 0002055  80.8985 141.8861  1.00271895 27364
ZHONGXING-2D            
1 43920U 19001A   26162.73995787 -.00000320  00000+0  00000+0 0  9995
2 43920   0.0425 249.9123 0001438  96.1776 310.3713  1.00274591 54021
HELLAS-SAT 4 & SGS-1    
1 44034U 19007A   26160.49215899  .00000170  00000+0  00000+0 0  9990
2 44034   0.0659 133.0572 0005087   8.6055 332.4040  1.00272091 27290
GSAT-31                 
1 44035U 19007B   26162.63261778  .00000142  00000+0  00000+0 0  9995
2 44035   0.0793 261.2629 0001882 103.0934 171.1726  1.00271975 26919
NUSANTARA SATU          
1 44048U 19009A   26160.22819295 -.00000218  00000+0  00000+0 0  9992
2 44048   0.0401 145.4911 0004291 326.7553  13.5159  1.00269842 26698
ZHONGXING-6C            
1 44067U 19012A   26162.73708341 -.00000319  00000+0  00000+0 0  9996
2 44067   0.1038  78.6292 0013822 331.9116 245.2868  1.00274346 26683
WGS 10 (USA 291)        
1 44071U 19014A   26162.20735823  .00000000  00000+0  00000+0 0  9996
2 44071   0.0227 359.5065 0000764 314.2285  80.7754  1.00267293 26553
TIANLIAN 2-01           
1 44076U 19017A   26162.68172714 -.00000090  00000+0  00000+0 0  9990
2 44076   0.5250  83.1167 0000693  18.6606 120.6897  1.00270813 26593
ARABSAT-6A              
1 44186U 19021A   26160.20529443  .00000171  00000+0  00000+0 0  9997
2 44186   0.0494   0.6850 0001280 101.2480 260.1178  1.00284123 26079
BEIDOU-3 IGSO-1         
1 44204U 19023A   26157.95428288 -.00000215  00000+0  00000+0 0  9993
2 44204  58.6799  37.7569 0025434 225.6649  92.8731  1.00294886  7105
BEIDOU-2 G8             
1 44231U 19027A   26162.72310984 -.00000231  00000+0  00000+0 0  9999
2 44231   1.6429  74.5053 0010323 283.0731 307.3465  1.00272924 26020
YAMAL 601               
1 44307U 19031A   26162.63287779  .00000000  00000+0  00000+0 0  9996
2 44307   0.0234 359.6015 0002128  82.8896  94.3171  1.00272145 25871
AT&T T-16               
1 44333U 19034A   26160.67834545 -.00000098  00000+0  00000+0 0  9997
2 44333   0.0247  68.1337 0000640 190.5571 142.7032  1.00268740 25552
EUTELSAT 7C             
1 44334U 19034B   26161.16086221  .00000066  00000+0  00000+0 0  9997
2 44334   0.0735 173.1347 0003061 250.6305 259.6729  1.00271195  6767
BEIDOU-3 IGSO-2         
1 44337U 19035A   26161.99583588 -.00000037  00000+0  00000+0 0  9999
2 44337  55.2455 158.9168 0039933 216.3389   2.4216  1.00268507 25603
COSMOS 2539             
1 44457U 19048A   26162.55415274  .00000098  00000+0  00000+0 0  9991
2 44457   0.0400 103.1991 0000242 141.6449 226.5634  1.00273877 25179
EDRS-C                  
1 44475U 19049A   26160.65529200 -.00000245  00000+0  00000+0 0  9991
2 44475   0.0409 141.6066 0001007 308.4571 186.3828  1.00270940 25139
INTELSAT 39 (IS-39)     
1 44476U 19049B   26161.94037841  .00000000  00000+0  00000+0 0  9998
2 44476   0.0255 336.9481 0001082 329.3092 353.5144  1.00269836 25065
AMOS-17                 
1 44479U 19050A   26160.98667957  .00000126  00000+0  00000+0 0  9992
2 44479   0.0150 336.4106 0001569 127.3490 166.7906  1.00270721 25110
AEHF-5 (USA 292)        
1 44481U 19051A   26162.72948661 -.00000242  00000+0  00000+0 0  9994
2 44481   1.4597 335.7501 0066387   0.4451 279.4873  1.00275692 25208
EUTELSAT 5 WEST B       
1 44624U 19067A   26162.69352024 -.00000026  00000+0  00000+0 0  9998
2 44624   0.0627 353.5175 0002984  86.7801  64.4209  1.00271886 24384
TJS-4                   
1 44637U 19070A   26162.76578308  .00000000  00000+0  00000+0 0  9990
2 44637   0.0224 344.6260 0004514  54.8912 219.7654  1.00268002 24483
BEIDOU-3 IGSO-3         
1 44709U 19073A   26136.81046384 -.00000217  00000+0  00000+0 0  9995
2 44709  54.8566 281.2355 0042953 189.4588 170.3676  1.00246251 24144
